{"type": "FeatureCollection", "features": [ {"type": "Feature", "properties": {"norad_id": 37867, "name": "COSMOS 2476 (744)", "group": "gnss", "lat": -47.508979846255485, "lon": -70.15793367835907, "alt_km": 19074.581227852366, "timestamp": "2025-12-02T15:49:07.430751+00:00", "meta": {"OBJECT_NAME": "COSMOS 2476 (744)", "OBJECT_ID": "2011-064A", "EPOCH": "2025-12-01T09:39:55.197216", "MEAN_MOTION": 2.13101277, "ECCENTRICITY": 0.002392, "INCLINATION": 65.1564, "RA_OF_ASC_NODE": 79.5552, "ARG_OF_PERICENTER": 233.3514, "MEAN_ANOMALY": 117.0738, "EPHEMERIS_TYPE": 0, "CLASSIFICATION_TYPE": "U", "NORAD_CAT_ID": 37867, "ELEMENT_SET_NO": 999, "REV_AT_EPOCH": 10954, "BSTAR": 0, "MEAN_MOTION_DOT": -1.3e-07, "MEAN_MOTION_DDOT": 0}, "tle": {"line1": "1 37867U 11064A   25335.40272219 -.00000013  00000+0  00000+0 0  9991", "line2": "2 37867  65.1564  79.5552 0023920 233.3514 117.0738  2.13101277109540"}}, "geometry": {"type": "Point", "coordinates": [-70.15793367835907, -47.508979846255485]}}, {"type": "Feature", "properties": {"norad_id": 37868, "name": "COSMOS 2477 (745)", "group": "gnss", "lat": 48.16420302811368, "lon": 110.69221261176656, "alt_km": 19177.830397304046, "timestamp": "2025-12-02T15:49:07.430764+00:00", "meta": {"OBJECT_NAME": "COSMOS 2477 (745)", "OBJECT_ID": "2011-064B", "EPOCH": "2025-12-01T05:34:43.743072", "MEAN_MOTION": 2.1310269, "ECCENTRICITY": 0.00209845, "INCLINATION": 65.1625, "RA_OF_ASC_NODE": 79.6383, "ARG_OF_PERICENTER": 233.8301, "MEAN_ANOMALY": 166.8442, "EPHEMERIS_TYPE": 0, "CLASSIFICATION_TYPE": "U", "NORAD_CAT_ID": 37868, "ELEMENT_SET_NO": 999, "REV_AT_EPOCH": 10954, "BSTAR": 0, "MEAN_MOTION_DOT": -1.2e-07, "MEAN_MOTION_DDOT": 0}, "tle": {"line1": "1 37868U 11064B   25335.23245073 -.00000012  00000+0  00000+0 0  9990", "line2": "2 37868  65.1625  79.6383 0020984 233.8301 166.8442  2.13102690109542"}}, "geometry": {"type": "Point", "coordinates": [110.69221261176656, 48.16420302811368]}}, {"type": "Feature", "properties": {"norad_id": 37869, "name": "COSMOS 2475 (743)", "group": "gnss", "lat": 10.344899735373051, "lon": 84.44935221904102, "alt_km": 19165.436100374038, "timestamp": "2025-12-02T15:49:07.430777+00:00", "meta": {"OBJECT_NAME": "COSMOS 2475 (743)", "OBJECT_ID": "2011-064C", "EPOCH": "2025-12-01T05:41:50.555616", "MEAN_MOTION": 2.13101369, "ECCENTRICITY": 0.00260135, "INCLINATION": 65.1695, "RA_OF_ASC_NODE": 79.658, "ARG_OF_PERICENTER": 248.1873, "MEAN_ANOMALY": 112.2788, "EPHEMERIS_TYPE": 0, "CLASSIFICATION_TYPE": "U", "NORAD_CAT_ID": 37869, "ELEMENT_SET_NO": 999, "REV_AT_EPOCH": 10955, "BSTAR": 0, "MEAN_MOTION_DOT": -1.2e-07, "MEAN_MOTION_DDOT": 0}, "tle": {"line1": "1 37869U 11064C   25335.23739069 -.00000012  00000+0  00000+0 0  9994", "line2": "2 37869  65.1695  79.6580 0026013 248.1873 112.2788  2.13101369109552"}}, "geometry": {"type": "Point", "coordinates": [84.44935221904102, 10.344899735373051]}}, {"type": "Feature", "properties": {"norad_id": 37948, "name": "BEIDOU-2 IGSO-5 (C10)", "group": "gnss", "lat": 36.9046708307633, "lon": 51.53652857756711, "alt_km": 35819.95759979536, "timestamp": "2025-12-02T15:49:07.430789+00:00", "meta": {"OBJECT_NAME": "BEIDOU-2 IGSO-5 (C10)", "OBJECT_ID": "2011-073A", "EPOCH": "2025-12-01T19:23:12.254208", "MEAN_MOTION": 1.00292861, "ECCENTRICITY": 0.01108827, "INCLINATION": 48.0424, "RA_OF_ASC_NODE": 273.9939, "ARG_OF_PERICENTER": 222.2372, "MEAN_ANOMALY": 317.7789, "EPHEMERIS_TYPE": 0, "CLASSIFICATION_TYPE": "U", "NORAD_CAT_ID": 37948, "ELEMENT_SET_NO": 999, "REV_AT_EPOCH": 5115, "BSTAR": 0, "MEAN_MOTION_DOT": -1.75e-06, "MEAN_MOTION_DDOT": 0}, "tle": {"line1": "1 37948U 11073A   25335.80778072 -.00000175  00000+0  00000+0 0  9992", "line2": "2 37948  48.0424 273.9939 0110882 222.2372 317.7789  1.00292861 51150"}}, "geometry": {"type": "Point", "coordinates": [51.53652857756711, 36.9046708307633]}}, {"type": "Feature", "properties": {"norad_id": 37951, "name": "LUCH 5A (SDCM/PRN 140)", "group": "gnss", "lat": 5.221474542772384, "lon": 115.6577332315995, "alt_km": 35802.13175017692, "timestamp": "2025-12-02T15:49:07.430804+00:00", "meta": {"OBJECT_NAME": "LUCH 5A (SDCM/PRN 140)", "OBJECT_ID": "2011-074B", "EPOCH": "2025-12-02T01:27:38.477664", "MEAN_MOTION": 1.00273251, "ECCENTRICITY": 0.00058464, "INCLINATION": 8.2506, "RA_OF_ASC_NODE": 76.7428, "ARG_OF_PERICENTER": 173.0027, "MEAN_ANOMALY": 10.307, "EPHEMERIS_TYPE": 0, "CLASSIFICATION_TYPE": "U", "NORAD_CAT_ID": 37951, "ELEMENT_SET_NO": 999, "REV_AT_EPOCH": 5107, "BSTAR": 0, "MEAN_MOTION_DOT": -3e-07, "MEAN_MOTION_DDOT": 0}, "tle": {"line1": "1 37951U 11074B   25336.06086201 -.00000030  00000+0  00000+0 0  9992", "line2": "2 37951   8.2506  76.7428 0005846 173.0027  10.3070  1.00273251 51070"}}, "geometry": {"type": "Point", "coordinates": [115.6577332315995, 5.221474542772384]}}, {"type": "Feature", "properties": {"norad_id": 38091, "name": "BEIDOU-2 G5 (C05)", "group": "gnss", "lat": -2.72448968503116, "lon": 7.884087041065801, "alt_km": 35770.3571916662, "timestamp": "2025-12-02T15:49:07.430819+00:00", "meta": {"OBJECT_NAME": "BEIDOU-2 G5 (C05)", "OBJECT_ID": "2012-008A", "EPOCH": "2025-12-02T05:30:12.619872", "MEAN_MOTION": 1.00271982, "ECCENTRICITY": 0.00122224, "INCLINATION": 3.0809, "RA_OF_ASC_NODE": 70.7374, "ARG_OF_PERICENTER": 225.4124, "MEAN_ANOMALY": 276.4387, "EPHEMERIS_TYPE": 0, "CLASSIFICATION_TYPE": "U", "NORAD_CAT_ID": 38091, "ELEMENT_SET_NO": 999, "REV_AT_EPOCH": 5039, "BSTAR": 0, "MEAN_MOTION_DOT": 7.7e-07, "MEAN_MOTION_DDOT": 0}, "tle": {"line1": "1 38091U 12008A   25336.22931273  .00000077  00000+0  00000+0 0  9992", "line2": "2 38091   3.0809  70.7374 0012222 225.4124 276.4387  1.00271982 50394"}}, "geometry": {"type": "Point", "coordinates": [7.884087041065801, -2.72448968503116]}}, {"type": "Feature", "properties": {"norad_id": 38250, "name": "BEIDOU-2 M3 (C11)", "group": "gnss", "lat": -1.5850445689302397, "lon": -49.592917115047996, "alt_km": 21522.15178823212, "timestamp": "2025-12-02T15:49:07.430831+00:00", "meta": {"OBJECT_NAME": "BEIDOU-2 M3 (C11)", "OBJECT_ID": "2012-018A", "EPOCH": "2025-12-01T01:13:35.126400", "MEAN_MOTION": 1.86229725, "ECCENTRICITY": 0.00245382, "INCLINATION": 55.9302, "RA_OF_ASC_NODE": 311.5507, "ARG_OF_PERICENTER": 273.3676, "MEAN_ANOMALY": 86.348, "EPHEMERIS_TYPE": 0, "CLASSIFICATION_TYPE": "U", "NORAD_CAT_ID": 38250, "ELEMENT_SET_NO": 999, "REV_AT_EPOCH": 9225, "BSTAR": 0, "MEAN_MOTION_DOT": -5.3e-07, "MEAN_MOTION_DDOT": 0}, "tle": {"line1": "1 38250U 12018A   25335.05110100 -.00000053  00000+0  00000+0 0  9993", "line2": "2 38250  55.9302 311.5507 0024538 273.3676  86.3480  1.86229725 92251"}}, "geometry": {"type": "Point", "coordinates": [-49.592917115047996, -1.5850445689302397]}}, {"type": "Feature", "properties": {"norad_id": 38251, "name": "BEIDOU-2 M4 (C12)", "group": "gnss", "lat": 34.80127597674533, "lon": -21.125679036340447, "alt_km": 21550.399905862956, "timestamp": "2025-12-02T15:49:07.430843+00:00", "meta": {"OBJECT_NAME": "BEIDOU-2 M4 (C12)", "OBJECT_ID": "2012-018B", "EPOCH": "2025-11-30T23:35:43.237248", "MEAN_MOTION": 1.86229405, "ECCENTRICITY": 0.00156645, "INCLINATION": 55.8317, "RA_OF_ASC_NODE": 310.7829, "ARG_OF_PERICENTER": 276.4205, "MEAN_ANOMALY": 83.3972, "EPHEMERIS_TYPE": 0, "CLASSIFICATION_TYPE": "U", "NORAD_CAT_ID": 38251, "ELEMENT_SET_NO": 999, "REV_AT_EPOCH": 9225, "BSTAR": 0, "MEAN_MOTION_DOT": -5.3e-07, "MEAN_MOTION_DDOT": 0}, "tle": {"line1": "1 38251U 12018B   25334.98313932 -.00000053  00000+0  00000+0 0  9993", "line2": "2 38251  55.8317 310.7829 0015664 276.4205  83.3972  1.86229405 92255"}}, "geometry": {"type": "Point", "coordinates": [-21.125679036340447, 34.80127597674533]}}, {"type": "Feature", "properties": {"norad_id": 38652, "name": "SES-5 (EGNOS/PRN 136)", "group": "gnss", "lat": 0.014456329492406423, "lon": -45.97528192796335, "alt_km": 35781.86734177234, "timestamp": "2025-12-02T15:49:07.430855+00:00", "meta": {"OBJECT_NAME": "SES-5 (EGNOS/PRN 136)", "OBJECT_ID": "2012-036A", "EPOCH": "2025-12-02T05:14:51.589824", "MEAN_MOTION": 1.00272595, "ECCENTRICITY": 0.00020777, "INCLINATION": 0.0606, "RA_OF_ASC_NODE": 301.9243, "ARG_OF_PERICENTER": 308.8486, "MEAN_ANOMALY": 264.257, "EPHEMERIS_TYPE": 0, "CLASSIFICATION_TYPE": "U", "NORAD_CAT_ID": 38652, "ELEMENT_SET_NO": 999, "REV_AT_EPOCH": 4249, "BSTAR": 0, "MEAN_MOTION_DOT": 5.5e-07, "MEAN_MOTION_DDOT": 0}, "tle": {"line1": "1 38652U 12036A   25336.21865266  .00000055  00000+0  00000+0 0  9999", "line2": "2 38652   0.0606 301.9243 0002077 308.8486 264.2570  1.00272595 42499"}}, "geometry": {"type": "Point", "coordinates": [-45.97528192796335, 0.014456329492406423]}}, {"type": "Feature", "properties": {"norad_id": 38775, "name": "BEIDOU-2 M6 (C14)", "group": "gnss", "lat": -44.51472838138292, "lon": -69.79641408965097, "alt_km": 21543.216216626643, "timestamp": "2025-12-02T15:49:07.430869+00:00", "meta": {"OBJECT_NAME": "BEIDOU-2 M6 (C14)", "OBJECT_ID": "2012-050B", "EPOCH": "2025-12-01T18:25:55.892928", "MEAN_MOTION": 1.86230731, "ECCENTRICITY": 0.00108652, "INCLINATION": 56.3691, "RA_OF_ASC_NODE": 69.4317, "ARG_OF_PERICENTER": 346.4712, "MEAN_ANOMALY": 13.5024, "EPHEMERIS_TYPE": 0, "CLASSIFICATION_TYPE": "U", "NORAD_CAT_ID": 38775, "ELEMENT_SET_NO": 999, "REV_AT_EPOCH": 8963, "BSTAR": 0, "MEAN_MOTION_DOT": -4.3e-07, "MEAN_MOTION_DDOT": 0}, "tle": {"line1": "1 38775U 12050B   25335.76800802 -.00000043  00000+0  00000+0 0  9993", "line2": "2 38775  56.3691  69.4317 0010865 346.4712  13.5024  1.86230731 89631"}}, "geometry": {"type": "Point", "coordinates": [-69.79641408965097, -44.51472838138292]}}]}